RANGE-A                 
1 43773U 18099R   26068.70590171  .00005536  00000+0  32166-3 0  9992
2 43773  97.4107 114.1927 0009674 340.4473  19.6386 15.12458640397457
STARLINK-3946           
1 52693U 22053AP  26068.43822790  .00001390  00000+0  10543-3 0  9992
2 52693  53.2174 145.2497 0001161 104.0452 256.0670 15.08826970211114
